ISS (ZARYA)             
1 25544U 98067A   26041.47150898  .00009872  00000+0  18993-3 0  9993
2 25544  51.6313 206.9057 0011100  84.3131 275.9122 15.48523328552116
CSS (TIANHE)            
1 48274U 21035A   26041.38023602  .00022829  00000+0  28372-3 0  9990
2 48274  41.4682  14.1762 0004477  48.6892 311.4331 15.59430362273345
ISS (NAUKA)             
1 49044U 21066A   26041.14883301  .00009718  00000+0  18714-3 0  9995
2 49044  51.6316 208.5012 0011102  83.1842 277.0409 15.48516896230449
FREGAT DEB              
1 49271U 11037PF  26041.09846007  .00041933  00000+0  68949-1 0  9998
2 49271  51.6599  23.3386 0932501 356.0447   3.3394 12.38292170209271
CSS (WENTIAN)           
1 53239U 22085A   26041.25215121  .00020678  00000+0  25753-3 0  9998
2 53239  41.4685  14.9543 0004544  46.7906 313.3312 15.59421284173847
CSS (MENGTIAN)          
1 54216U 22143A   26041.25215121  .00020678  00000+0  25753-3 0  9999
2 54216  41.4685  14.9543 0004544  46.7906 313.3312 15.59421284158644
PROGRESS-MS 31          
1 64751U 25146A   26041.14883301  .00009718  00000+0  18714-3 0  9990
2 64751  51.6316 208.5012 0011102  83.1842 277.0409 15.48516896  6756
TIANZHOU-9              
1 64786U 25149A   26041.25215121  .00020678  00000+0  25753-3 0  9991
2 64786  41.4685  14.9543 0004544  46.7906 313.3312 15.59421284255308
DRAGON CRS-33           
1 65304U 25186A   26041.14883301  .00009718  00000+0  18714-3 0  9999
2 65304  51.6316 208.5012 0011102  83.1842 277.0409 15.48516896   115
PROGRESS-MS 32          
1 65586U 25204A   26041.14883301  .00009718  00000+0  18714-3 0  9992
2 65586  51.6316 208.5012 0011102  83.1842 277.0409 15.48516896   274
CYGNUS NG-23            
1 65616U 25208A   26041.14883301  .00009718  00000+0  18714-3 0  9990
2 65616  51.6316 208.5012 0011102  83.1842 277.0409 15.48516896   223
ISS OBJECT XK           
1 65731U 98067XK  26041.42407933  .00282474  00000+0  11145-2 0  9997
2 65731  51.6220 190.7819 0004267 293.3014  66.7540 15.85494522 22542
