CCSDS_OMM_VERS = 2.0
CREATION_DATE  = 
ORIGINATOR     = 

OBJECT_NAME    = ISS (ZARYA)
OBJECT_ID      = 1998-067A
CENTER_NAME    = EARTH
REF_FRAME      = TEME
TIME_SYSTEM    = UTC
MEAN_ELEMENT_THEORY = SGP/SGP4

EPOCH          = 2026-02-10T11:18:58.375872
MEAN_MOTION    = 15.48523328
ECCENTRICITY   = .00111
INCLINATION    = 51.6313
RA_OF_ASC_NODE = 206.9057
ARG_OF_PERICENTER = 84.3131
MEAN_ANOMALY   = 275.9122

EPHEMERIS_TYPE = 0
CLASSIFICATION_TYPE = U
NORAD_CAT_ID   = 25544
ELEMENT_SET_NO = 999
REV_AT_EPOCH   = 55211
BSTAR          = .18993E-3
MEAN_MOTION_DOT = .9872E-4
MEAN_MOTION_DDOT = 0

CCSDS_OMM_VERS = 2.0
CREATION_DATE  = 
ORIGINATOR     = 

OBJECT_NAME    = CSS (TIANHE)
OBJECT_ID      = 2021-035A
CENTER_NAME    = EARTH
REF_FRAME      = TEME
TIME_SYSTEM    = UTC
MEAN_ELEMENT_THEORY = SGP/SGP4

EPOCH          = 2026-02-10T09:07:32.392128
MEAN_MOTION    = 15.59430362
ECCENTRICITY   = .0004477
INCLINATION    = 41.4682
RA_OF_ASC_NODE = 14.1762
ARG_OF_PERICENTER = 48.6892
MEAN_ANOMALY   = 311.4331

EPHEMERIS_TYPE = 0
CLASSIFICATION_TYPE = U
NORAD_CAT_ID   = 48274
ELEMENT_SET_NO = 999
REV_AT_EPOCH   = 27334
BSTAR          = .28372E-3
MEAN_MOTION_DOT = .22829E-3
MEAN_MOTION_DDOT = 0

CCSDS_OMM_VERS = 2.0
CREATION_DATE  = 
ORIGINATOR     = 

OBJECT_NAME    = ISS (NAUKA)
OBJECT_ID      = 2021-066A
CENTER_NAME    = EARTH
REF_FRAME      = TEME
TIME_SYSTEM    = UTC
MEAN_ELEMENT_THEORY = SGP/SGP4

EPOCH          = 2026-02-10T03:34:19.172064
MEAN_MOTION    = 15.48516896
ECCENTRICITY   = .00111024
INCLINATION    = 51.6316
RA_OF_ASC_NODE = 208.5012
ARG_OF_PERICENTER = 83.1842
MEAN_ANOMALY   = 277.0409

EPHEMERIS_TYPE = 0
CLASSIFICATION_TYPE = U
NORAD_CAT_ID   = 49044
ELEMENT_SET_NO = 999
REV_AT_EPOCH   = 23044
BSTAR          = .18714395E-3
MEAN_MOTION_DOT = .9718E-4
MEAN_MOTION_DDOT = 0

CCSDS_OMM_VERS = 2.0
CREATION_DATE  = 
ORIGINATOR     = 

OBJECT_NAME    = FREGAT DEB
OBJECT_ID      = 2011-037PF
CENTER_NAME    = EARTH
REF_FRAME      = TEME
TIME_SYSTEM    = UTC
MEAN_ELEMENT_THEORY = SGP/SGP4

EPOCH          = 2026-02-10T02:21:46.950048
MEAN_MOTION    = 12.38292170
ECCENTRICITY   = .09325013
INCLINATION    = 51.6599
RA_OF_ASC_NODE = 23.3386
ARG_OF_PERICENTER = 356.0447
MEAN_ANOMALY   = 3.3394

EPHEMERIS_TYPE = 0
CLASSIFICATION_TYPE = U
NORAD_CAT_ID   = 49271
ELEMENT_SET_NO = 999
REV_AT_EPOCH   = 20927
BSTAR          = .68949102E-1
MEAN_MOTION_DOT = .41933E-3
MEAN_MOTION_DDOT = 0

CCSDS_OMM_VERS = 2.0
CREATION_DATE  = 
ORIGINATOR     = 

OBJECT_NAME    = CSS (WENTIAN)
OBJECT_ID      = 2022-085A
CENTER_NAME    = EARTH
REF_FRAME      = TEME
TIME_SYSTEM    = UTC
MEAN_ELEMENT_THEORY = SGP/SGP4

EPOCH          = 2026-02-10T06:03:05.864544
MEAN_MOTION    = 15.59421284
ECCENTRICITY   = .00045449
INCLINATION    = 41.4685
RA_OF_ASC_NODE = 14.9543
ARG_OF_PERICENTER = 46.7906
MEAN_ANOMALY   = 313.3312

EPHEMERIS_TYPE = 0
CLASSIFICATION_TYPE = U
NORAD_CAT_ID   = 53239
ELEMENT_SET_NO = 999
REV_AT_EPOCH   = 17384
BSTAR          = .25752818E-3
MEAN_MOTION_DOT = .20678E-3
MEAN_MOTION_DDOT = 0

CCSDS_OMM_VERS = 2.0
CREATION_DATE  = 
ORIGINATOR     = 

OBJECT_NAME    = CSS (MENGTIAN)
OBJECT_ID      = 2022-143A
CENTER_NAME    = EARTH
REF_FRAME      = TEME
TIME_SYSTEM    = UTC
MEAN_ELEMENT_THEORY = SGP/SGP4

EPOCH          = 2026-02-10T06:03:05.864544
MEAN_MOTION    = 15.59421284
ECCENTRICITY   = .00045449
INCLINATION    = 41.4685
RA_OF_ASC_NODE = 14.9543
ARG_OF_PERICENTER = 46.7906
MEAN_ANOMALY   = 313.3312

EPHEMERIS_TYPE = 0
CLASSIFICATION_TYPE = U
NORAD_CAT_ID   = 54216
ELEMENT_SET_NO = 999
REV_AT_EPOCH   = 15864
BSTAR          = .25752818E-3
MEAN_MOTION_DOT = .20678E-3
MEAN_MOTION_DDOT = 0

CCSDS_OMM_VERS = 2.0
CREATION_DATE  = 
ORIGINATOR     = 

OBJECT_NAME    = PROGRESS-MS 31
OBJECT_ID      = 2025-146A
CENTER_NAME    = EARTH
REF_FRAME      = TEME
TIME_SYSTEM    = UTC
MEAN_ELEMENT_THEORY = SGP/SGP4

EPOCH          = 2026-02-10T03:34:19.172064
MEAN_MOTION    = 15.48516896
ECCENTRICITY   = .00111024
INCLINATION    = 51.6316
RA_OF_ASC_NODE = 208.5012
ARG_OF_PERICENTER = 83.1842
MEAN_ANOMALY   = 277.0409

EPHEMERIS_TYPE = 0
CLASSIFICATION_TYPE = U
NORAD_CAT_ID   = 64751
ELEMENT_SET_NO = 999
REV_AT_EPOCH   = 675
BSTAR          = .18714395E-3
MEAN_MOTION_DOT = .9718E-4
MEAN_MOTION_DDOT = 0

CCSDS_OMM_VERS = 2.0
CREATION_DATE  = 
ORIGINATOR     = 

OBJECT_NAME    = TIANZHOU-9
OBJECT_ID      = 2025-149A
CENTER_NAME    = EARTH
REF_FRAME      = TEME
TIME_SYSTEM    = UTC
MEAN_ELEMENT_THEORY = SGP/SGP4

EPOCH          = 2026-02-10T06:03:05.864544
MEAN_MOTION    = 15.59421284
ECCENTRICITY   = .00045449
INCLINATION    = 41.4685
RA_OF_ASC_NODE = 14.9543
ARG_OF_PERICENTER = 46.7906
MEAN_ANOMALY   = 313.3312

EPHEMERIS_TYPE = 0
CLASSIFICATION_TYPE = U
NORAD_CAT_ID   = 64786
ELEMENT_SET_NO = 999
REV_AT_EPOCH   = 25530
BSTAR          = .25752818E-3
MEAN_MOTION_DOT = .20678E-3
MEAN_MOTION_DDOT = 0

CCSDS_OMM_VERS = 2.0
CREATION_DATE  = 
ORIGINATOR     = 

OBJECT_NAME    = DRAGON CRS-33
OBJECT_ID      = 2025-186A
CENTER_NAME    = EARTH
REF_FRAME      = TEME
TIME_SYSTEM    = UTC
MEAN_ELEMENT_THEORY = SGP/SGP4

EPOCH          = 2026-02-10T03:34:19.172064
MEAN_MOTION    = 15.48516896
ECCENTRICITY   = .00111024
INCLINATION    = 51.6316
RA_OF_ASC_NODE = 208.5012
ARG_OF_PERICENTER = 83.1842
MEAN_ANOMALY   = 277.0409

EPHEMERIS_TYPE = 0
CLASSIFICATION_TYPE = U
NORAD_CAT_ID   = 65304
ELEMENT_SET_NO = 999
REV_AT_EPOCH   = 11
BSTAR          = .18714395E-3
MEAN_MOTION_DOT = .9718E-4
MEAN_MOTION_DDOT = 0

CCSDS_OMM_VERS = 2.0
CREATION_DATE  = 
ORIGINATOR     = 

OBJECT_NAME    = PROGRESS-MS 32
OBJECT_ID      = 2025-204A
CENTER_NAME    = EARTH
REF_FRAME      = TEME
TIME_SYSTEM    = UTC
MEAN_ELEMENT_THEORY = SGP/SGP4

EPOCH          = 2026-02-10T03:34:19.172064
MEAN_MOTION    = 15.48516896
ECCENTRICITY   = .00111024
INCLINATION    = 51.6316
RA_OF_ASC_NODE = 208.5012
ARG_OF_PERICENTER = 83.1842
MEAN_ANOMALY   = 277.0409

EPHEMERIS_TYPE = 0
CLASSIFICATION_TYPE = U
NORAD_CAT_ID   = 65586
ELEMENT_SET_NO = 999
REV_AT_EPOCH   = 27
BSTAR          = .18714395E-3
MEAN_MOTION_DOT = .9718E-4
MEAN_MOTION_DDOT = 0

CCSDS_OMM_VERS = 2.0
CREATION_DATE  = 
ORIGINATOR     = 

OBJECT_NAME    = CYGNUS NG-23
OBJECT_ID      = 2025-208A
CENTER_NAME    = EARTH
REF_FRAME      = TEME
TIME_SYSTEM    = UTC
MEAN_ELEMENT_THEORY = SGP/SGP4

EPOCH          = 2026-02-10T03:34:19.172064
MEAN_MOTION    = 15.48516896
ECCENTRICITY   = .00111024
INCLINATION    = 51.6316
RA_OF_ASC_NODE = 208.5012
ARG_OF_PERICENTER = 83.1842
MEAN_ANOMALY   = 277.0409

EPHEMERIS_TYPE = 0
CLASSIFICATION_TYPE = U
NORAD_CAT_ID   = 65616
ELEMENT_SET_NO = 999
REV_AT_EPOCH   = 22
BSTAR          = .18714395E-3
MEAN_MOTION_DOT = .9718E-4
MEAN_MOTION_DDOT = 0

CCSDS_OMM_VERS = 2.0
CREATION_DATE  = 
ORIGINATOR     = 

OBJECT_NAME    = ISS OBJECT XK
OBJECT_ID      = 1998-067XK
CENTER_NAME    = EARTH
REF_FRAME      = TEME
TIME_SYSTEM    = UTC
MEAN_ELEMENT_THEORY = SGP/SGP4

EPOCH          = 2026-02-10T10:10:40.454112
MEAN_MOTION    = 15.85494522
ECCENTRICITY   = .0004267
INCLINATION    = 51.6220
RA_OF_ASC_NODE = 190.7819
ARG_OF_PERICENTER = 293.3014
MEAN_ANOMALY   = 66.7540

EPHEMERIS_TYPE = 0
CLASSIFICATION_TYPE = U
NORAD_CAT_ID   = 65731
ELEMENT_SET_NO = 999
REV_AT_EPOCH   = 2254
BSTAR          = .11145E-2
MEAN_MOTION_DOT = .282474E-2
MEAN_MOTION_DDOT = 0

